ROBUSTA-3A (MEDITERRAN*)
1 60243U 24128J   24229.82971835  .00016234  00000+0  14370-2 0  9996
2 60243  61.9925  30.5145 0013592 287.6656  72.2947 14.96378658  5684
